[{"OBJECT_NAME":"NOAA 17","OBJECT_ID":"2002-032A","EPOCH":"2025-03-09T21:36:48.567168","MEAN_MOTION":14.25939014,"ECCENTRICITY":0.0010482,"INCLINATION":98.8015,"RA_OF_ASC_NODE":25.9072,"ARG_OF_PERICENTER":257.1186,"MEAN_ANOMALY":102.8823,"EPHEMERIS_TYPE":0,"CLASSIFICATION_TYPE":"U","NORAD_CAT_ID":27453,"ELEMENT_SET_NO":999,"REV_AT_EPOCH":18081,"BSTAR":0.00017583,"MEAN_MOTION_DOT":3.74e-6,"MEAN_MOTION_DDOT":0},{"OBJECT_NAME":"NOAA 18","OBJECT_ID":"2005-018A","EPOCH":"2025-03-09T21:19:52.324320","MEAN_MOTION":14.13536521,"ECCENTRICITY":0.0014505,"INCLINATION":98.8472,"RA_OF_ASC_NODE":149.3856,"ARG_OF_PERICENTER":33.9438,"MEAN_ANOMALY":326.266,"EPHEMERIS_TYPE":0,"CLASSIFICATION_TYPE":"U","NORAD_CAT_ID":28654,"ELEMENT_SET_NO":999,"REV_AT_EPOCH":2071,"BSTAR":0.00021318,"MEAN_MOTION_DOT":3.58e-6,"MEAN_MOTION_DDOT":0},{"OBJECT_NAME":"NOAA 19","OBJECT_ID":"2009-005A","EPOCH":"2025-03-09T21:07:32.376576","MEAN_MOTION":14.13304126,"ECCENTRICITY":0.0012813,"INCLINATION":99.0084,"RA_OF_ASC_NODE":133.0333,"ARG_OF_PERICENTER":261.5885,"MEAN_ANOMALY":98.3835,"EPHEMERIS_TYPE":0,"CLASSIFICATION_TYPE":"U","NORAD_CAT_ID":33591,"ELEMENT_SET_NO":999,"REV_AT_EPOCH":82889,"BSTAR":0.00020511,"MEAN_MOTION_DOT":3.39e-6,"MEAN_MOTION_DDOT":0},{"OBJECT_NAME":"SUOMI NPP","OBJECT_ID":"2011-061A","EPOCH":"2025-03-09T21:51:37.916928","MEAN_MOTION":14.19569083,"ECCENTRICITY":0.0001128,"INCLINATION":98.7498,"RA_OF_ASC_NODE":9.2312,"ARG_OF_PERICENTER":148.0049,"MEAN_ANOMALY":212.1195,"EPHEMERIS_TYPE":0,"CLASSIFICATION_TYPE":"U","NORAD_CAT_ID":37849,"ELEMENT_SET_NO":999,"REV_AT_EPOCH":69257,"BSTAR":0.00010484,"MEAN_MOTION_DOT":1.77e-6,"MEAN_MOTION_DDOT":0},{"OBJECT_NAME":"NOAA 20 (JPSS-1)","OBJECT_ID":"2017-073A","EPOCH":"2025-03-09T20:33:16.606080","MEAN_MOTION":14.19566906,"ECCENTRICITY":0.0001531,"INCLINATION":98.7338,"RA_OF_ASC_NODE":8.651,"ARG_OF_PERICENTER":131.1097,"MEAN_ANOMALY":229.0212,"EPHEMERIS_TYPE":0,"CLASSIFICATION_TYPE":"U","NORAD_CAT_ID":43013,"ELEMENT_SET_NO":999,"REV_AT_EPOCH":37859,"BSTAR":0.00010421,"MEAN_MOTION_DOT":1.76e-6,"MEAN_MOTION_DDOT":0},{"OBJECT_NAME":"NOAA 21 (JPSS-2)","OBJECT_ID":"2022-150A","EPOCH":"2025-03-09T21:26:07.139616","MEAN_MOTION":14.19550827,"ECCENTRICITY":0.0002761,"INCLINATION":98.7192,"RA_OF_ASC_NODE":9.132,"ARG_OF_PERICENTER":86.7356,"MEAN_ANOMALY":273.4136,"EPHEMERIS_TYPE":0,"CLASSIFICATION_TYPE":"U","NORAD_CAT_ID":54234,"ELEMENT_SET_NO":999,"REV_AT_EPOCH":12067,"BSTAR":0.00011707,"MEAN_MOTION_DOT":2.03e-6,"MEAN_MOTION_DDOT":0}]
