NOAA 17                 
1 27453U 02032A   25068.90056212  .00000374  00000+0  17583-3 0  9994
2 27453  98.8015  25.9072 0010482 257.1186 102.8823 14.25939014180814
NOAA 18                 
1 28654U 05018A   25068.88880005  .00000358  00000+0  21318-3 0  9990
2 28654  98.8472 149.3856 0014505  33.9438 326.2660 14.13536521 20712
NOAA 19                 
1 33591U 09005A   25068.88023584  .00000339  00000+0  20511-3 0  9990
2 33591  99.0084 133.0333 0012813 261.5885  98.3835 14.13304126828895
SUOMI NPP               
1 37849U 11061A   25068.91085552  .00000177  00000+0  10484-3 0  9990
2 37849  98.7498   9.2312 0001128 148.0049 212.1195 14.19569083692579
NOAA 20 (JPSS-1)        
1 43013U 17073A   25068.85644220  .00000176  00000+0  10421-3 0  9995
2 43013  98.7338   8.6510 0001531 131.1097 229.0212 14.19566906378590
NOAA 21 (JPSS-2)        
1 54234U 22150A   25068.89313819  .00000203  00000+0  11707-3 0  9994
2 54234  98.7192   9.1320 0002761  86.7356 273.4136 14.19550827120676
